,Unnamed: 0,name,formatted_address,Latitude,Longitude,closest_dynobil,closest_oponent,closest_noter,closest_galeri,NÜFUS,NÜFUS_YOĞ.,HANE_HALKI,TÜKETİM_EĞİLİMLERİ,GAYRİMENKUL_İŞLEMLERİ,GAYRİMENKUL_DAĞILIMI,EĞİTİM_DÜZEYİ_LİSANS,EĞİTİM_DÜZEYİ_LİSE,EĞİTİM_DÜZEYİ_ORTAOKUL,EĞİTİM_DÜZEYİ_İLKOKUL,SOSYO_EKONOMİK_STATÜ_A,SOSYO_EKONOMİK_STATÜ_B,SOSYO_EKONOMİK_STATÜ_C,SOSYO_EKONOMİK_STATÜ_D
0,0,DYNOBİL Adana E5 Oto Ekspertiz,"Fevzipaşa, DYNOBİL OTO EKSPERTİZ, Turhan Cemal Beriker Blv. 280\A D:E5, 01190 Seyhan/Adana, Turkey",36.9947881,35.2823149,4.113550966862781,0.0792227040796337,2.784239577498955,4.293019343813659,13110.0,10404.0,3.58,3717.0,282.0,6036.0,0,0,0,1,0,1,0,0
1,1,Dynobil Adana,"Ziyapaşa, Mustafa Kemal Paşa Blv. No:83/A, 01130 Seyhan/Adana, Turkey",37.007448,35.3257501,4.113550966862781,0.0188052621498178,0.1262752199064922,0.1961614687251659,8461.0,10193.0,3.6,5244.0,69.0,4418.0,0,1,0,0,0,0,1,0
2,2,Ceyhan Oto Ekspertiz,"Ulus, Cevher Dudayev Sk. No:79, 01940 Ceyhan/Adana, Turkey",37.02797839999999,35.8204224,35.88762611927901,0.1375972973808486,0.5237878518189735,0.4185866888902198,5180.0,11511.0,3.67,4009.0,160.0,2021.0,0,1,0,0,0,0,1,0
3,3,Adıyaman oto ekspertiz DYNOBİL kurumsal,"Altınşehir, 30151. Sk. No:3/A, 02040 Merkez/Adıyaman, Turkey",37.7399414,38.2245981,68.28988743879133,0.5801702161970217,0.7844822430398175,0.2801891955942293,21049.0,1525.0,4.15,3749.0,218.0,5122.0,0,1,0,0,0,0,1,0
4,4,DYNOBİL Dinar Oto Ekspertiz,"Yeni Sanayi Sitesi 03 Blok No:2, 03400 Dinar/Afyonkarahisar, Turkey",38.04399859999999,30.1084424,38.73878258448151,5.330874215936071,5.764948181912646,5.03275857294304,8398.5,4443.5,3.205,4238.0,218.0,5122.0,0,1,0,0,0,0,1,0
5,5,DYNOBIL OTO EKSPERTIZ,"Yeni Mah. Sanayi Sitesi 3085 Sk. No:20, 03600 Emirdağ/Afyonkarahisar, Turkey",39.0316896,31.1625734,56.71066173990771,2.2581125424962,1.4543985568436562,56.0035186878269,2061.0,570.0,2.98,4392.0,68.0,2023.0,0,1,0,0,0,0,0,1
6,6,AFYON OTO EKSPERTİZ - DYNOBİL,"Veysel Karani, 1140. Sk. NO:3/A, 03030 Afyonkarahisar Merkez/Afyonkarahisar, Turkey",38.7775397,30.5954433,46.53146299527543,0.0058163803336154,4.323286049941547,0.7461482002872981,4081.0,1111.0,3.64,3814.0,135.0,3333.0,0,0,0,1,0,0,1,0
7,7,SANDIKLI DYNOBİL KURUMSAL OTO EKSPERTİZ GÜÇLÜ OTOMOTİV,"Şirinevler, güçlü otomotiv, 5.cadde no 34, 03500 Sandıklı/Afyonkarahisar, Turkey",38.4483615,30.264682,46.53146299527543,1.363980521491355,1.9482545906581448,0.3881675782411145,8398.5,4443.5,3.205,4238.0,218.0,5122.0,0,1,0,0,0,0,1,0
8,8,Dynobil Aksaray Oto Ekspertiz,"Hacılarharmanı, mah mobilyacılar sitesi no:9/C D:C blok, 68100 Aksaray Merkez/Aksaray, Turkey",38.3534493,33.9852476,68.02305008517978,0.1349391419119816,0.2036137399126572,0.2148211193130842,5321.0,1392.0,3.52,2967.0,282.0,4378.0,0,1,0,0,0,0,1,0
9,9,DYNOBİL AMASYA TÜRKİYE`NİN VE AMASYA`NIN İLK VE TEK KURUMSAL EKSPERTİZ SERVİSİ,"Küçük Sanayi Sitesi Dadı Mah.Mücavir Meziyet Sok. 9/A, 05000 Amasya, Turkey",40.564498,35.791589,32.49878675805724,0.0167635923046294,9.83648326166782,10.742311404792307,8398.5,4443.5,3.205,4238.0,218.0,5122.0,0,1,0,0,0,0,1,0
10,10,DYNOBİL Otonomi Resmi Şube,"Otonomi 28/G2 Blok No:4, 06750 Akyurt/Ankara, Turkey",40.0800527,32.9632287,7.520159057341696,0.3049706991042373,0.1619119985547737,0.5642475149929934,974.0,64.8,3.31,2829.0,112.0,1555.0,0,0,0,1,0,0,1,0
11,11,Dynobil Kazimkarabekir oto Test Merkezi,"Zübeyde Hanım, Kazım Karabekir Cd. 97/2, 06900 Altındağ/Ankara, Turkey",39.9511798,32.8533346,2.473067659092405,0.012161099982135,0.2211381464042829,0.0670125196670768,15606.0,5613.0,3.25,7136.0,283.0,12950.0,0,1,0,0,1,0,0,0
12,12,Özcan Oto Servis,"Ayvaşık, Demirciler Sanayi Sitesi 5. Sk., 06730 Beypazarı/Ankara, Turkey",40.1758383,31.94213809999999,57.05147144155911,2.80120094261831,2.395766715899442,51.03716011992758,7537.0,384.5,2.93,2539.0,424.0,5012.0,0,0,0,1,0,1,0,0
13,13,Dynobil Concept,"Oğuzlar mahallesi 1377.sokak no:14/A-B-C-D, 06020 Çankaya, Turkey",39.9000897,32.8149116,1.086273164237768,0.1777550171849612,0.3151890593319195,6.620924446192676,7749.0,12498.0,3.04,8609.0,127.0,4362.0,1,0,0,0,1,0,0,0
14,14,DYNOBİL Cevizlidere Oto Ekspertiz,"Ehlibeyt, Ceyhun Atuf Kansu Cd. No:124/42, 06520 Çankaya/Ankara, Turkey",39.8903268,32.8157328,1.086273164237768,0.0057425237902597,0.0984651106536808,7.547154860829272,2846.0,4992.0,2.76,9161.0,75.0,2423.0,1,0,0,0,1,0,0,0
15,15,Dynobil Turan Güneş Oto Ekspertiz,"Sancak, Turan Güneş Blv. No: 47/a, 06550 Çankaya/Ankara, Turkey",39.868989,32.86006,2.650586718209662,0.1082104696410389,0.7953872975011067,7.676291835380623,11006.0,11585.0,2.72,9245.0,206.0,5666.0,1,0,0,0,1,0,0,0
16,16,Dynobil Çayyolu Yaşamkent oto ekspertiz,"Konutkent, kule evo avm arka cephe, Dumlupınar Blv. 15. km D:b12, 06810 Çankaya/Ankara, Turkey",39.8743521,32.6502616,2.4942433293913995,1.950213884849464,2.4391754277610085,8.916545752738239,8929.0,4650.0,2.21,10402.0,437.0,5672.0,1,0,0,0,1,0,0,0
17,17,DYNOBİL Çayyolu Oto Ekspertiz,"Çayyolu Mah. 2683. Cadde Suit Çayyolu 1/29, 06000 Çankaya/Ankara, Turkey",39.87883009999999,32.6992651,4.221503354130969,0.3434737094348463,1.6023561533887474,7.875640493873839,6701.0,2691.0,2.77,10549.0,117.0,4185.0,1,0,0,0,1,0,0,0
18,18,Dynobil Eryaman Oto Ekspertiz,"Altay Mah. Orhanbey Caddesi Galeria AVM, D:3/5, 06824 Etimesgut/Ankara, Turkey",39.9678142,32.6345786,1.7439371090859628,0.0172979302339367,1.8382738481646328,1.554871512441437,30567.0,9892.0,2.72,9359.0,567.0,14988.0,1,0,0,0,1,0,0,0
19,19,Dynobil Etimesgut Ankara Oto Ekspertiz,"Piyade, İstasyon Cad. No:200 D:1, 06794 Etimesgut/Ankara, Turkey",39.953085,32.6416654,1.7439371090859628,0.7251455102148521,2.2484017023749368,0.5703014668471368,13394.0,6060.0,2.43,7332.0,364.0,7643.0,1,0,0,0,1,0,0,0
20,20,YILDIZ CAR SYSTEM BOSCH CAR SERVİCE DYNOBİL EKSPERTİZ,"Birlik, 448. Cd. NO : 4/A, 06650 Çankaya/Ankara, Turkey",39.8839051,32.8842509,2.650586718209662,0.4932542082292971,1.3566914594311932,5.081264801244587,32692.0,27472.0,3.39,3383.0,850.0,12147.0,0,1,0,0,0,0,1,0
21,21,DYNOBİL Etimesgut Oto Ekspertiz Bağlıca,"Bağlıca, Bulvar Lim-Ka İşyerleri No:31F, Bağlıca Blv., 06930 Etimesgut/Ankara, Turkey",39.8967614,32.6522971,2.4942433293913995,0.5756550079751567,0.3280220077935946,6.502340251717993,20109.0,1539.0,3.15,7604.0,2034.0,9898.0,1,0,0,0,1,0,0,0
22,22,Gölbaşı Oto Test(Ekspertiz) - DYNOBİL,"Eymir 832. Sokak 12B D:A, 06830 Gölbaşı/Ankara, Turkey",39.8010923,32.8131597,8.541001007911046,0.789764751009461,0.8973370936699288,1.3512740274402533,4970.0,218.0,5.18,5300.0,178.0,6426.0,1,0,0,0,0,1,0,0
23,23,DYNOBİL İncek Oto Ekspertiz,"İncek, Turgut özal, Mah. Bulvarı No:27-B, 06830 Gölbaşı/Ankara, Turkey",39.8083122,32.7030261,7.836331431947167,1.2330866138903798,1.2345389639539586,10.305416213749425,23324.0,2900.0,3.4,4922.0,894.0,8326.0,1,0,0,0,0,0,1,0
24,24,Oto Ekpertiz Mamak-Dynobil,"Altınevler, Plevne Cd. No:95/A, 06350 Mamak/Ankara, Turkey",39.951045,32.8985569,2.76400943395622,0.0361471347952452,0.7783128419228279,2.979624169238076,5409.0,381.0,3.11,8839.0,766.0,5122.0,1,0,0,0,1,0,0,0
25,25,Otorapor Ankara Etimesgut Şaşmaz Oto Ekspertiz,"Bahçekapı Mh. Sanayi Bulvarı Başayar plaza No: 5/6 Şaşmaz Oto Sanayi Sitesi, 06797 Etimesgut, Turkey",39.9434027,32.7125388,0.666645300034813,0.0031759733923559,0.3721648009248431,0.742333643795034,17061.0,12453.0,2.97,7828.0,260.0,7412.0,0,1,0,0,1,0,0,0
26,26,Polatlı DYNOBİL Ekspertiz Şubesi,"Fatih mahallesi, Ankara, Nasrettin Hoca Blv. 56/A, 06900 Polatlı/Ankara, Turkey",39.57418029999999,32.1341036,55.292296498271206,0.0008603661091578,0.6475296293051933,0.4417870745955085,32406.0,25317.0,3.05,4941.0,710.0,13499.0,0,1,0,0,0,1,0,0
27,27,DYNOBİL Otonomi 1 Oto Ekspertiz,"Saray Karyağdı Mah. Cadde Küme Evleri No:74, D:C, 06145 Pursaklar/Ankara, Turkey",40.0392942,32.8928352,7.520159057341696,0.9335067717178428,1.576157134611929,6.872718342957622,11010.0,10194.0,3.43,2802.0,143.0,4549.0,0,0,0,1,0,1,0,0
28,28,Dynobil Sincan Oto Ekspertiz,"Gökçek Mah. Ayaş Yolu 26. Km No:402/F Total Benzinlik İçi (Sincan O.S.B Karşısı, 06949 Sincan/Ankara, Turkey",39.9841913,32.5627497,6.39967408438675,2.087736711664484,2.484755116396778,5.752586688821232,36963.0,30051.0,3.44,4625.0,784.0,14355.0,0,1,0,0,0,1,0,0
29,29,GEN (Güvenilir Ekspertiz Noktası) - Subayevleri,"Kavacık Subayevleri, Şht. Ömer Halisdemir Blv 47/C, 06135 Keçiören/Ankara, Turkey",39.9669925,32.8737182,2.473067659092405,0.4605747122418182,0.7586166151847201,1.2165657067898858,14536.0,11722.0,3.21,2980.0,268.0,5766.0,0,1,0,0,0,1,0,0
30,30,DYNOBİL Yenimahalle Oto Ekspertiz,"Macun, 196. Cd., 06105 Yenimahalle/Ankara, Turkey",39.9490915,32.7644207,3.633736725944488,0.0091512631027399,0.017258565334563,4.764140650600925,2510.0,845.0,3.02,8258.0,200.0,3997.0,0,1,0,0,1,0,0,0
31,31,Dynobil Yenimahalle Oto Ekspertiz,"Tepealtı, İvedik Cd. No: 282, 06170 Yenimahalle/Ankara, Turkey",39.964245,32.802113,3.633736725944488,0.3934210455121343,0.7023813107979687,4.636651510302216,5516.0,27580.0,2.69,6515.0,88.0,2686.0,1,0,0,0,1,0,0,0
32,32,Dynobil Ostim Bayii,"Serhat Mah. Melih Gökçek Bulvarı Maxivedik İş Merkezi, 06378 Yenimahalle/Ankara, Turkey",39.9894902,32.7406355,4.924427690497668,0.0054516473937377,0.4439206042644412,0.679466391048353,24592.0,3743.0,3.38,6563.0,1.0,9151.0,1,0,0,0,1,0,0,0
33,33,Başkent Oto Sanayi (Ottoman) Dynobil Oto-Ekspertiz,"Ergazi, 1804. Cd. No: 6/27, 06370 Yenimahalle/Ankara, Turkey",39.948973,32.7096279,0.666645300034813,0.0170792774352606,1.0197745818930355,0.0938050452938778,18302.0,10001.0,2.76,5943.0,400.0,8059.0,0,1,0,0,1,0,0,0
34,34,Alanya Oto Ekspertiz Dynobil,"Kızlar Pınarı, Su Gözü Mah, Zamanoğlu Cd. No:49/B, 07400 Alanya/Antalya, Turkey",36.5567094,31.98162769999999,11.717668353435302,0.9704692004971108,1.5324888852771965,1.1209231619226725,6882.0,4618.0,3.16,5001.0,114.0,3611.0,0,0,0,1,0,0,1,0
35,35,DYNOBİL Konaklı Oto Ekspertiz,"Konaklı Mahallesi, Talat Efendi Sk. No:4-4 D:1, 07400 Alanya/Antalya, Turkey",36.5935414,31.85893299999999,11.717668353435302,12.624094316521008,0.0615362134536105,12.755694260176174,17425.0,2274.0,3.18,4692.0,367.0,13075.0,0,0,0,1,0,0,1,0
36,36,Dynobil Şentürk Oto Ekspertiz,"Karyağdı, 07700 Elmalı/Antalya, Turkey",36.706596,29.9124266,49.11288167744723,51.78452529617135,2.9246922540112217,3.0295566202179742,4876.0,401.317,3.04,3590.0,250.0,5728.0,0,0,0,1,0,1,0,0
37,37,DYNOBİL Finike Oto Ekspertiz,"Yenimahalle Fatih Bulv. Park Finike Konutları A Blok No: 23A/14, 07740 Finike/Antalya, Turkey",36.3050879,30.1430801,13.91233273799782,13.229342104476908,0.7916102965892925,5.394265630389829,6929.0,5413.0,3.06,4521.0,270.0,3767.0,0,1,0,0,0,0,1,0
38,38,Dynobil | Antalya Kepez Oto Ekspertiz,"Kültür, 75. Yıl Cd. No:64-A, 07090 Kepez/Antalya, Turkey",36.9071341,30.6493924,4.398785678726249,0.0044220276710482,0.5754460365213101,0.4247768625235391,14428.0,13611.0,2.25,5699.0,218.0,5122.0,0,1,0,0,0,0,1,0
39,39,Dynobil Antalya Oto Ekspertiz | Kepez Sakarya Blv Bayii 07-11,"Yeni mahalle, Sakarya Blv. 253/B, 07060 Kepez/Antalya, Turkey",36.918755,30.7026378,1.1789099666594869,0.3549317286019536,0.436669687156535,0.1683565119991421,13230.0,15564.0,3.37,3632.0,218.0,5122.0,0,1,0,0,0,0,1,0
40,40,DYNOBİL KUMLUCA OTO EKSPERTİZ YETKİLİ BAYİ(Güvenilir ekspertiz noktası),"Meydan mahallesi, Ahmet Ali Ağa Blv. No:77, 07350 Kumluca/Antalya, Turkey",36.3575913,30.2837906,13.91233273799782,1.062916435122359,0.7446772443750639,13.665410960063962,3492.0,31745.0,3.25,3387.0,27.0,1927.0,0,0,0,1,0,0,1,0
41,41,DYNOBİL Manavgat Oto Ekspertiz,"Örnek, 1555. Sk. No:1, 07600 Manavgat/Antalya, Turkey",36.7795489,31.4591802,33.512878738166144,0.2283426087394407,0.7164204168259525,0.0676042000759461,6886.0,9979.0,3.28,4922.0,64.0,3372.0,0,1,0,0,0,0,1,0
42,42,Dynobil | Muratpaşa Oto Ekspertiz,"Cumhuriyet, Fatih Caddesi No:85/ Muratpaşa, 07000 Merkez/Antalya, Turkey",36.9086092,30.6987168,1.1789099666594869,0.0480407057801053,0.8703441497750045,1.0995378303472525,11383.0,12789.0,2.98,6729.0,216.0,6809.0,0,1,0,0,1,0,0,0
43,43,DYNOBİL SERİK EKSPERTİZ,"Akçaalan, 4127. Sk., 07500 Serik/Antalya, Turkey",36.9128207,31.1220052,33.512878738166144,0.0034383323219742,1.5124003373557386,0.3990745505950283,9683.0,2712.0,3.35,3175.0,206.0,5952.0,0,0,0,1,0,0,1,0
44,44,Bayrak Oto Ekspertiz,"Sundura, Hopa KSS, 08600 Hopa/Artvin, Turkey",41.3869857,41.45341060000001,46.449921680478205,3.218279986860152,2.721163304828879,1.2287762461550464,483.0,75.351,3.205,4238.0,218.0,5122.0,0,1,0,0,0,0,1,0
45,45,Didim Oto Ekspertiz ( Didim Dynobil Oto Ekspertiz Didim Expertiz Hizmetleri ),"Cumhuriyet Mahallesi 1087. Sokak No:52 (OTOGAR KARŞISI, 09295 Didim/Aydın, Turkey",37.3737506,27.2790193,36.48865869029671,0.7440406294023139,0.8634911818043626,0.5850155469776613,9964.0,1359.0,2.98,4491.0,666.0,7302.0,0,0,0,1,0,1,0,0
46,46,DYNOBİL 4X4 OTO EKSPERTİZ HİZMETİ,"Zeybek mah. zeybek caddesi, geniş cadde no:32, 09100 Efeler/Aydın, Turkey",37.8441222,27.819418,28.417769253322327,0.2641104393809519,2.2546978766838386,0.6076123559027814,7420.0,3884.0,3.2,5854.0,0.0,5169.0,1,0,0,0,1,0,0,0
47,47,DYNOBİL Oto Ekspertiz nazilli,"Yenimahalle, 22/1. Sk. No:25/A, 09800 Nazilli/Aydın, Turkey",37.9084057,28.3131087,44.01691367823724,0.0240370609552326,0.955169730728367,0.8015702632896217,13704.0,14735.0,2.73,4801.0,325.0,8101.0,0,0,0,1,0,0,1,0
48,48,Dynobil Söke Oto Ekspertiz,"Yeni Cami, Bağarası Cd. no:26, 09200 Söke/Aydın, Turkey",37.7503383,27.4159817,37.025461513275054,0.6092488311555204,1.010501454850859,0.6545940629629136,15523.0,1315.0,3.04,5712.0,564.0,9409.0,0,1,0,0,0,0,1,0
49,49,DYNOBİL Ayvalık Oto Ekspertiz,"150 Evler, 29 Mayıs Cd. No: 48 D:A3, 10400 Ayvalık/Balıkesir, Turkey",39.3217753,26.7175402,29.334219498096065,30.522944345704012,2.136888985614281,29.817195802708955,11197.0,1477.0,2.78,7764.0,307.0,6894.0,0,1,0,0,1,0,0,0
50,50,Bandırma Oto Expertiz DYNOBİL 4X4 TSE-HYB BELGELİ,"600 Evler, Gündoğan Sk. No:2, 10200 Bandırma/Balıkesir, Turkey",40.3351065,27.9910089,33.793496052569225,0.3074840550900653,0.3613221099969828,0.0751041117963661,7794.0,727.0,3.1,3611.0,343.0,5588.0,0,1,0,0,0,0,1,0
51,51,DYNOBİL Burhaniye Oto Ekspertiz,"Cumhuriyet, Küçük Sanayi Sit. 3. Sk No:40, 10700 Burhaniye/Balıkesir, Turkey",39.495449,26.9742197,29.334219498096065,1.2037344036386344,0.6721982386587431,1.153657450293026,6271.0,4237.0,3.02,3243.0,206.0,5106.0,0,0,0,1,0,0,1,0
52,52,DYNOBİL Gönen 4x4 Oto Ekspertiz,"Gündoğdu Mah. 244 Sk. No: 1 L, 10900 Gönen/Balıkesir, Turkey",40.1001502,27.6653653,38.04065554735957,2.3015325726908222,1.304913817338809,37.73716339544185,4630.0,5087.0,2.78,2708.0,42.0,4065.0,0,0,0,1,0,1,0,0
53,53,Dynobil Auto Expertise,"Paşa Alanı, 18. Sk. 17 A, 10020 Karesi/Balıkesir, Turkey",39.6688751,27.9233508,6.692131221148929,0.1440671365319115,2.255411281408901,6.527222293178838,27403.0,3733.0,3.28,6140.0,530.0,14248.0,0,1,0,0,1,0,0,0
54,54,DYNOBİL Balıkesir Oto Ekspertiz Galericiler Sitesi,"Kuva-i Milliye Mahallesi 20045. Sk. Oto Galericiler Sitesi 2. Kısım No:5, 10100 Karesi/Balıkesir, Turkey",39.65868409999999,27.8464869,6.692131221148929,0.1392878006668866,3.208049872241142,0.1889706107941351,8069.0,763.0,3.04,3984.0,363.0,4394.0,0,1,0,0,0,0,1,0
55,55,Bartın Oto Ekspertiz Dynobil - TSE Belgeli,"Gölbucağı, 122. Cd. No:11, 74100 Merkez/Bartın, Turkey",41.64206590000001,32.3190262,30.66649589273938,0.1986641460842797,1.824441226320862,1.7718509835690788,8398.5,4443.5,3.205,4238.0,218.0,5122.0,0,1,0,0,0,0,1,0
56,56,DYNOBİL BATMAN,"Cumhuriyet mah. 1504 sok. 6.NOTER karşısı no:4, 72070 MERKEZ/Batman, Turkey",37.8885291,41.1305202,84.04109692663766,2.0533763619080165,0.0171319180583856,0.0908676746693918,4893.0,18122.0,4.63,3409.0,218.0,5122.0,0,0,1,0,0,0,1,0
57,57,Bilecik Oto Ekspertiz,"Küçük Sanayi Sitesi 3. Blok No:25, 11000 Bilecik Merkez/Bilecik, Turkey",40.1610033,29.98074129999999,36.804834839132205,0.0556743654734344,1.8477142519691927,0.2707575686690144,8650.0,5805.0,3.56,5209.0,357.0,4161.0,0,1,0,0,0,0,1,0
58,58,Dynobil Bolu Oto Ekspertiz Merkezi,"Aşağısoku, Sanayi Sitesi 6 Blok D:No:4, 14100 Bolu Merkez/Bolu, Turkey",40.7390234,31.6254363,43.87276287323154,0.4186916032431864,0.6845566859375887,44.15510772090315,3349.0,1753.0,2.9,4955.0,218.0,5122.0,0,0,0,1,0,1,0,0
59,59,Dynobil Burdur Oto Ekspertiz,"Özgür Mah. Oto Tamirciler Sitesi 2. Sok. No:8, 15100 Merkez/Burdur, Turkey",37.726905,30.292432,23.601926268181217,0.071851071572775,0.5739798176117089,1.3069879360188872,2027.0,5197.0,2.64,5981.0,51.0,2105.0,0,1,0,0,1,0,0,0
60,60,Dynobil Gemlik Oto Ekspertiz,"Dr. Ziya Kaya, Mahallesi, Cumhuriyet Cd. No: 23/A, 16600 Gemlik/Bursa, Turkey",40.4259612,29.1697263,15.192141415109278,0.676818092039758,1.2028113279812596,0.2064175603905111,17214.0,26081.0,3.08,2830.0,327.0,8306.0,0,1,0,0,0,1,0,0
61,61,DYNOBİL İnegöl Oto Ekspertiz,"Sinanbey, 2.metal sokak No: 02/3, 16400 İnegöl/Bursa, Turkey",40.0903379,29.5136791,39.230251885685206,0.0252871901988789,0.9637396890065058,2.058846170053667,5673.0,7771.0,3.08,4763.0,98.0,3649.0,0,0,0,1,0,0,1,0
62,62,Dynobil Güvenilir Ekspertiz Noktası,"Yeşil Camii, Küçük Sanayi Sitesi Sokak 3d, 16860 İznik/Bursa, Turkey",40.4296412,29.7271798,32.82077507294651,0.2652185406346116,0.4178895016219335,0.7325751453611775,5486.0,4533.0,3.25,2617.0,230.0,3576.0,0,0,0,1,0,0,1,0
63,63,Karacabey Dynobil Oto Ekspertiz,"Nasrettin, Bağlar Cd. No:5, 16700 Karacabey/Bursa, Turkey",40.208756,28.352467,19.011332353268127,0.5917848479354257,0.9345995215956984,0.8045360582314589,1357.0,19385.0,2.8,2703.0,60.0,854.0,0,0,0,1,0,0,1,0
64,64,DYNOBİL Oto Ekspertiz Mustafakemalpaşa,"Hamzabey, Şht. Adnan Yıldız Cd. 4/A D:No : 2, 16500 Mustafakemalpaşa/Bursa, Turkey",40.0417561,28.4016592,19.011332353268127,0.7128302560196861,0.993123176210208,0.6532995379027929,4725.0,21477.0,2.74,4202.0,168.0,3042.0,0,0,0,1,0,0,1,0
65,65,Dynobil Nilüfer Oto Ekspertiz,"Alaaddinbey Mah. Ayfatma Cad Cengizhan Residance no: 10 C/D, 16110 Nilüfer/Bursa, Turkey",40.2113863,28.922473,5.568906230484093,0.1311562313911583,2.159519229533605,8.768711224824466,915.0,132.0,2.95,6381.0,143.0,2604.0,0,0,0,1,1,0,0,0
66,66,ORHANGAZİ DYNOBİL OTO EKSPERTİZ,"Total, Muradiye Mahallesi Yalova Yolu Caddesi No:2 (Total Kürüm Petrol İçi Orhangazi Kürüm Petrol İçi, 16800 Orhangazi/Bursa, Turkey",40.5046363,29.3162736,13.411537265051434,3.552604558062228,1.4673636342856733,1.454529112218436,3347.0,15938.0,2.46,6035.0,21.0,2339.0,0,1,0,0,1,0,0,0
67,67,Dynobil Oto Ekspertiz Emek Osmangazi,"Zekai Gümüşdiş Mah. Sanayi Cad. Berk Center No:592, 16800 Osmangazi/Bursa, Turkey",40.2554446,28.9537373,0.0,0.6152615751879609,0.3866439360625509,4.600438829489352,3957.0,14655.0,2.87,6720.0,141.0,4055.0,0,1,0,0,1,0,0,0
68,68,DYNOBİL Yunuseli Oto Ekspertiz,"Yunuseli, Recep Tayyip Erdoğan Blv I Blok D:5/1, 16010 Osmangazi/Bursa, Turkey",40.2393576,29.012031,5.271770436575785,0.1847504236960996,2.194460554135725,1.843225559741829,38094.0,7822.0,3.38,5548.0,736.0,18181.0,0,1,0,0,0,0,1,0
69,69,DYNOBİL BİGA OTO EKSPERTİZ,"İstiklal, Sanayi 14. Sk. No 14, 17200 Biga/Çanakkale, Turkey",40.2340346,27.2543137,38.04065554735957,0.02727022583936,0.7207532635904138,0.0215162095933102,9879.0,34065.0,3.73,4785.0,88.0,4247.0,0,0,0,1,1,0,0,0
70,70,Gelibolu Oto Ekspertiz DYNOBİL,"Alaeddin, Alaaddin Mahallesi 5. Sokak, Gelibolu Küçük Sanayi Sitesi No: 30, 17500 Gelibolu/Çanakkale, Turkey",40.4123338,26.6557874,35.3500891391789,0.2538582930240035,1.276831926534895,1.484182010949806,8398.5,4443.5,3.205,4238.0,218.0,5122.0,0,1,0,0,0,0,1,0
71,71,DYNOBİL OTO EKSPERTİZ,"İsmetpaşa, Şefik İnan Cd. no: 48/A, 17100 MERKEZ/Çanakkale, Turkey",40.1512728,26.4178866,35.3500891391789,0.9490880818794076,0.4114679078852335,36.75985438139733,2873.0,2931.0,2.5,2879.0,41.0,2770.0,0,0,0,1,0,0,1,0
72,72,DYNOBİL Çankırı Oto Ekspertiz,"Abdulhalik Renda, Tamirciler Sk. No:14, 18000 Merkez/Çankırı, Turkey",40.56215,33.6104333,76.75602153862283,75.92211289578228,4.109662391308364,0.0809123887370316,23200.0,8405.0,2.7,7030.0,3.0,15643.0,0,1,0,0,1,0,0,0
73,73,SYM Oto Ekspertiz,"Demirtaşpaşa, İnönü Cad. No:104-108 D:/E, 16220 Osmangazi/Bursa, Turkey",40.1909178,29.0723773,7.437679488080815,0.3033799557498002,0.4046142108873136,4.868284522668361,19665.0,2021.0,3.47,5882.0,434.0,8554.0,0,1,0,0,1,0,0,0
74,74,Çorum Dynobil Ekspertiz,"Çepni, İnönü Cd. 188/A, 19200 Çorum Merkez/Çorum, Turkey",40.5298453,34.9222328,73.74190347265537,0.072372063000952,3.075044053506029,75.31590795284721,3160.0,711.0,5.28,6707.0,218.0,5122.0,0,1,0,0,1,0,0,0
75,75,DYNOBİL Denizli Oto Ekspertiz,"SümerMah. Akçeşme Cad. 24, 1 Sk No:20, 20050 Merkezefendi/Denizli, Turkey",37.7911062,29.0919303,48.09166082377807,0.258610125492977,0.6824616386401918,1.6918801169459634,4038.0,306.0,2.98,2615.0,5010.0,52567.0,0,0,0,1,0,0,1,0
76,76,Dynobil Oto Ekspertiz Emek Osmangazi,"Zekai Gümüşdiş Mah. Sanayi Cad. Berk Center No:592, 16800 Osmangazi/Bursa, Turkey",40.2554446,28.9537373,0.0,0.6152615751879609,0.3866439360625509,4.600438829489352,8365.0,2664.0,3.11,5032.0,448.0,9989.0,0,0,0,1,0,1,0,0
77,77,Dynobil Oto Ekspertiz Ergani,"Adnan Menderes mah, Kurtuluş Cd. no233/A, 21950 Ergani/Diyarbakır, Turkey",38.2534779,39.7762959,47.891574676534766,0.1135445779465996,0.1075267901534382,0.1441598986987659,34650.0,28875.0,4.04,1618.0,396.0,14049.0,0,1,0,0,0,0,0,1
78,78,Dynobil Diyarbakır Oto Ekspertiz,"Fabrika, Elazığ Yolu 3. Km İplik, 775. Sk. No:2/1, 21120 Yenişehir/Diyarbakır, Turkey",37.9622403,40.1791898,47.891574676534766,0.0561724666234223,6.020090304909307,0.6886867501869505,25715.0,8322.0,4.11,3985.0,218.0,5122.0,0,0,1,0,0,0,1,0
79,79,DYNOBİL Düzce Oto Ekspertiz - Hatipoğlu,"Aziziye Mahallesi 1050. Bulvar Caddesi No:1 Z:1, Hal Kavşağı, 81100 Merkez/Düzce, Turkey",40.8478644,31.12571579999999,43.87276287323154,0.012461227840356,2.6005851019478574,0.4220131557077672,854.0,646.0,3.27,3154.0,20.0,1002.0,0,0,0,1,0,1,0,0
80,80,DYNOBİL ELAZIĞ,"Sanayi, 23190 Elâzığ Merkez/Elazığ, Turkey",38.6699055,39.24465,65.49714019211778,0.0015365285284695,1.9491799270502708,0.6620686842862968,3179.0,4354.0,3.93,2418.0,0.0,1485.0,0,0,1,0,0,0,0,1
81,81,DYNOBİL OTO EKSPERTİZ,"Yenidoğan, 9. Sk. No:46, 24170 Geçit/Erzincan Merkez/Erzincan, Turkey",39.7369993,39.5337588,121.07130944028694,0.0190258520909545,3.790064808824762,0.7125358612410767,3633.0,4718.0,2.84,3240.0,218.0,5122.0,0,1,0,0,0,0,1,0
82,82,DYNOBİL Erzurum Oto Ekspertiz,"Kurtuluş, Endüstri Cd. No:15, 25030 Yakutiye/Erzurum, Turkey",39.9239951,41.2825734,141.6760967964451,0.0702018262392621,0.9769703033452596,3.1907905745862952,34565.0,3810.0,3.78,3045.0,218.0,17590.0,0,0,0,1,0,0,1,0
83,83,Acıpayam Oto Ekspertiz,"Yeni, Sanayi Blv. No:110, 20800 Acıpayam/Denizli, Turkey",37.4142046,29.3606105,48.09166082377807,0.124764858399177,1.6290188101730807,0.085412517612933,10903.0,745.0,3.0,3226.0,366.0,8454.0,0,1,0,0,0,0,1,0
84,84,Dynobil Güvenilir Ekspertiz Noktası,"75.yıl mahallesi Emko sanayi sitesi A/5 blok no:1, 26110 Odunpazarı/Eskişehir, Turkey",39.7422086,30.6164959,65.15241689597448,0.0409533558165376,0.4935368474608163,0.1592149909105094,24378.0,6415.0,4.14,2988.0,218.0,5122.0,0,0,0,1,0,0,1,0
85,85,DYNOBİL Şahinbey Oto Ekspertiz,"Mavikent, Şahinbey Sanayi Sit, 135022 Nolu Cd No:12/A, 27000 Şahinbey/Gaziantep, Turkey",36.9969805,37.3811812,12.190548537636566,0.1805264279340216,2.0405600939435997,12.221500146137226,19512.0,5824.0,3.96,4059.0,0.0,10032.0,0,0,0,1,0,0,1,0
86,86,DYNOBİL OTO EKSPERTİZ ŞEHİTKAMİL,"Karacaahmet, 38004 nolu Cad No:5, 27100 Şehitkamil/Gaziantep, Turkey",37.10599860000001,37.3979748,12.190548537636566,0.0930119053582616,2.00202870309333,0.0478196226572268,5591.0,16942.0,3.1,4112.0,218.0,5122.0,0,1,0,0,0,0,1,0
87,87,Dynobil Oto Ekspertiz - Giresun / Bulancak,"Ballıca, Barbaros Hayrettin Paşa Cd. No:9/A, 28300 Bulancak/Giresun, Turkey",40.9376331,38.2161972,26.875026351030343,0.0674844953699052,0.3618074110217671,0.1779410065026217,9718.0,2089.0,4.18,3073.0,0.0,4754.0,0,1,0,0,0,0,1,0
88,88,Yüksekova Oto Ekspertiz - Oto Experim,"Yeni, Hakkari Yüksekova Yolu No:215 İç Kapı No:5, 30300 Yüksekova/Hakkari, Turkey",37.5699821,44.27728339999999,187.0770908285396,2.5539717616561397,0.6983162296810704,186.84109081249636,26767.0,4893.0,3.52,4309.0,653.0,13001.0,0,1,0,0,0,1,0,0
89,89,DYNOBİL OTO EKSPERTİZ DÖRTYOL TSE HYB ONAYLI,"ŞHT. POLİS NECATİ KESKİN BLV. KAZIMKARABEKİR CADDESİ., NUMUNE EVLER MAHALLESİ NO:17, OTOGAR ÜSTÜ ORMAN İŞLETME MEVKİİ, 31600 DÖRTYOL/Hatay, Turkey",36.8297443,36.20339999999999,5.58997928506376,0.3914895804586081,2.076551608402359,0.0338679668466311,5543.0,16796.0,3.15,4366.0,123.0,5086.0,0,0,0,1,0,0,1,0
90,90,DYNOBİL - İskenderun Oto Ekspertiz & Oto Severoğlu,"Muradiye, No:36, 319. Sk. Sanayi Sitesi, 31200 İskenderun/Hatay, Turkey",36.5785016,36.1814786,18.48593394321454,0.3012357308872566,1.1962409963880891,0.1669573852770909,1911.0,492.0,4.55,1962.0,37.0,1613.0,0,0,1,0,0,0,1,0
91,91,Dynobil oto ekspertiz kırıkhan,"Menderes mah 891. Sk no1 - Yeni sanayi sitesi girişi, 31440 Kırıkhan/Hatay, Turkey",36.5242538,36.3766975,18.48593394321454,2.339269564653845,3.1276000879478403,1.888391157891769,3485.0,1636.0,3.61,3931.0,160.0,3177.0,0,0,0,1,0,1,0,0
92,92,PAYAS OTO EKSPERTİZ DYNOBİL BAYİ,"Yıldırım Beyazıt, YILDIRIM BEYAZIT MAHALLESİ, Hüseyin İşler Sk. No:5 D:BLOK NO:6, 31900 DEMİRCİ/Payas/Hatay, Turkey",36.7802052,36.214744,5.58997928506376,0.2129867435659996,1.7227781241701992,1.6457724152473363,3318.0,5623.0,5.49,1901.0,43.0,1723.0,0,0,0,1,0,0,0,1
93,93,DYNOBİL REYHANLI OTO EKSPERTİZ MERKEZİ,"Mustafa Kemal, Pazartesi Pazarı Yanı Galericiler Sitesi, 31500 Reyhanlı/Hatay, Turkey",36.27315919999999,36.5650093,32.584090226640875,0.0680739799082316,0.6302464003384871,0.3602177583918617,4882.0,1479.0,6.54,6178.0,258.0,3296.0,0,1,0,0,1,0,0,0
94,94,DYNOBİL OTO EKSPERTİZ ISPARTA,"Sanayi, 3241. Sk. No:18, 32200 Isparta Merkez/Isparta, Turkey",37.773915,30.553616,23.601926268181217,0.017886710522184,0.3529004953591908,1.340090553922586,403.0,164.0,3.17,3010.0,0.0,749.0,0,0,1,0,0,1,0,0
95,95,DYNOBİL Yalvaç Oto Ekspertiz,"Sanayi, marangozlar sokak no:42, 32400 Yalvaç/Isparta, Turkey",38.2779783,31.176843,23.861399990398827,0.2992571723983717,1.879795259428385,23.212731571181678,15171.0,11580.0,3.97,3000.0,392.0,6359.0,0,0,0,1,0,0,1,0
96,96,DYNOBİL Arnavutköy Oto Ekspertiz,"Mustafa Kemal Paşa, Fatih Cd. No:125, 34277 Arnavutköy/İstanbul, Turkey",41.1899649,28.7356005,14.63601187079862,0.0564330214585864,0.923462896411125,2.4461426511953817,65282.0,5766.0,3.5,5725.0,1253.0,30512.0,0,0,0,1,0,0,1,0
97,97,DYNOBIL OTO EKSPERTIZ,"Tahtakale, Açelya Sokağı, 34325 Avcılar/İstanbul, Turkey",41.0582022,28.712106,5.0802069516203066,0.0433070542669645,0.0104315221082515,12.253273899756056,3790.0,15791.0,3.56,4209.0,32.0,1601.0,0,0,0,1,0,0,1,0
98,98,Dynobil Oto Ekspertiz Esenler Bayii,"Yavuz Selim, Yavuz Selim Cd No:26/1, 34220 Esenler/İstanbul, Turkey",41.0348697,28.8948625,3.620870280119486,0.2977116618988475,0.6438144051851374,4.426805621521226,72719.0,36913.0,3.77,5907.0,931.0,26156.0,0,0,0,1,1,0,0,0
99,99,Dynobil Auto Expertise,"Kocasinan Merkez Mahallesi, Egemenlik Caddesi, Oto Sanayi Sitesi C2 Blok No: 11/2-3, 34192, Turkey",41.0121422,28.8445136,2.08584237602084,1.0042040571547193,1.3313588869395296,0.6410013082679493,30252.0,4132.0,3.72,5438.0,574.0,14910.0,0,1,0,0,0,0,1,0
100,100,Dynobil İkitelli Oto Ekspertiz,"Atatürk Blv. No:50/F, 34490 İkitelli Osb/Başakşehir/İstanbul, Turkey",41.071131,28.810963,6.119700220258275,0.7178834756418193,1.0008313939985392,5.244745328546171,14088.0,11361.0,3.12,4875.0,335.0,7078.0,0,1,0,0,0,1,0,0
101,101,Dynobil Büyükçekmece Oto Ekspertiz,"EKİNOBA MAH. LAVİNYA PARK A BLOK/216-B E-5 YANYOL, 34500 Büyükçekmece/İstanbul, Turkey",41.0119284,28.5381567,10.788038771397666,0.0182676235719541,7.780731728860788,26.02985939930327,27199.0,1109.0,3.02,3480.0,708.0,13482.0,0,1,0,0,0,0,1,0
102,102,Dynobil Güvenilir Oto Ekspertiz Noktası,"Ferhatpaşa, Atatürk Cd. No:88, 34888 Çatalca/İstanbul, Turkey",41.1355071,28.4655443,15.019653644201362,1.308862476413762,0.545853981731973,22.97404514090868,37129.0,33449.0,2.9,3584.0,2197.0,26205.0,0,1,0,0,0,0,1,0
103,103,Esenyurt Oto Ekspertiz Dynobil,"Yeşilkent Mahallesi Orhan Veli Caddesi Esbahçe Konakları Dükkan No: 6, 34325 Esenyurt/İstanbul, Turkey",41.0304578,28.6640655,5.0802069516203066,0.0387882060846081,1.445612380130572,15.497008918277857,12071.0,13120.0,3.13,4225.0,461.0,6916.0,0,1,0,0,0,0,1,0
104,104,Dynobil Alibeyköy Oto Ekspertiz,"Alibeyköy, Gaziosmanpaşa Çk. No: 46/B, 34060 Eyüpsultan/İstanbul, Turkey",41.0747686,28.9424341,2.812503902335698,0.2375765417578121,0.2778026040423306,7.058956712387458,50480.0,54869.0,3.62,5960.0,484.0,20073.0,0,0,0,1,1,0,0,0
105,105,Dynobil Gaziosmanpaşa Oto Ekspertiz,"Barbaros Hayrettin paşa mahallesi, Eski Edirne Asf. No:336, 34250 Gaziosmanpaşa/İstanbul, Turkey",41.0749377,28.883606,1.9124205398593976,1.431176826372442,0.2284461295754786,2.9373925441607147,20109.0,55858.0,2.92,7608.0,312.0,10451.0,0,1,0,0,1,0,0,0
106,106,Dynobil Güngören Oto Ekspertiz,"Haznedar, Bağcılar Cd. No:24 D:ükkan C, 34160 Güngören/İstanbul, Turkey",41.0088474,28.8689246,2.08584237602084,0.4032249003735004,0.1266832240074005,2.0379610458607478,33240.0,15980.0,3.22,8007.0,907.0,19609.0,0,1,0,0,1,0,0,0
107,107,Dynobil Kağıthane Oto Ekspertiz 4x4,"Merkez, Kağıthane Cd. No 71/1, 34000 Kâğıthane/İstanbul, Turkey",41.0755476,28.9758847,2.812503902335698,0.0079526067715743,0.4698317687372605,5.65209330786405,5585.0,18016.0,3.14,3924.0,71.0,2859.0,0,0,0,1,0,0,1,0
108,108,DYNOBİL oto ekspertiz pendik 4×4,"Orta, Tevfik İleri Cd Nuhoğlu Sitesi D:no 17/c, 34890 Pendik/İstanbul, Turkey",40.8887997,29.2403428,10.76139464949431,0.0045146428397269,0.4299788329090567,10.497525911663717,49815.0,13685.0,3.9,3127.0,1304.0,18239.0,0,0,0,1,0,0,1,0
109,109,Sancaktepe Oto Ekspertiz Dynobil,"Osmangazi, Ahmet Yesevi Cd no.8/A, 34887 Sancaktepe/İstanbul, Turkey",40.9855388,29.23290249999999,8.582641759536228,0.4604023958040913,0.2213399106559356,1.853030975558087,11918.0,2393.0,2.41,20062.0,975.0,14985.0,1,0,0,0,1,0,0,0
110,110,MASLAK DYNOBIL 4×4 OTO EKSPERTIZ,"Atatürk Sanayi Sitesi 2.kısım C kapısı 37.sok 1522 nolu Dukkan, 34398 Sarıyer/İstanbul, Turkey",41.1189889,29.0233689,6.260090108374522,0.0329842222532975,0.7040928338648171,0.660060461517397,64967.0,37124.0,4.53,3213.0,839.0,21012.0,0,0,0,1,0,1,0,0
111,111,Sultangazi dynobil ekspertiz,"Esentepe, 2981. Sk. No:104, 34265 Sultangazi/İstanbul, Turkey",41.0921581,28.8836082,1.9124205398593976,0.1274264257384689,1.884040845880268,1.7571278892325766,28795.0,34279.0,3.49,3079.0,218.0,5122.0,0,0,0,1,0,0,1,0
112,112,3k Oto Ekspertiz - Dynobil Dudullu Şube,"Altınşehir Mahallesi Tavukçuyolu Caddesi, Beka Sk. No:3, 34775 Ümraniye/İstanbul, Turkey",41.011969,29.137045,8.582641759536228,0.5726595874346128,0.5492669572340262,7.0905322286690575,36950.0,7375.0,2.95,10775.0,1331.0,26010.0,0,1,0,0,1,0,0,0
113,113,DYNOBİL Bornova Oto Ekspertiz,"Kazımdirik, Üniversite Cd. No:73, 35100 Bornova/İzmir, Turkey",38.4454004,27.1862767,12.917495859430128,0.2863883167077187,0.8212490867133716,61.04600816055729,28560.0,8474.0,2.79,9611.0,561.0,15137.0,1,0,0,0,1,0,0,0
114,114,Dynobil Oto Ekspertiz,"no:10, 8229/1. Sk. Odin İş Merkez, 35640 Çiğli/İzmir, Turkey",38.4924644,27.0509054,12.917495859430128,0.0540811369855262,0.055056461548604,73.58408385412997,11608.0,5955.0,2.63,2592.0,218.0,5122.0,0,0,0,1,0,0,1,0
115,115,Tire Oto Ekspertiz Dynobil Yetkili Bayii,"İpekçiler, Adnan Menderes Blv. No:49/1, 35900 Tire/İzmir, Turkey",38.0923457,27.740188,28.417769253322327,0.0364989133252482,0.8084094314657858,0.269480141009329,1628.0,563.0,4.01,2851.0,218.0,5122.0,0,0,1,0,0,0,1,0
116,116,Dynobil Oto Ekspertiz,"İstasyon Mah Doğu Çevre Yolu Üzeri Bulv No:28/A Dulkadiroğlu, 46040 Onikişubat/Kahramanmaraş, Turkey",37.5673079,36.9266284,66.07496917796219,0.5456653756561288,0.5425582462766566,2.9700943054842126,567.0,1206.0,2.44,6040.0,21.0,1821.0,0,0,0,1,1,0,0,0
117,117,Kars Oto Ekspertiz,"Şehitler, Cumhuriyet Cd. No: 14, 36000 Merkez/Kars, Turkey",40.595236,43.09456,163.70806977839837,0.2645743014733357,1.170190303836945,0.0142494101721795,14015.0,2674.0,3.35,3597.0,668.0,8463.0,0,1,0,0,0,0,1,0
118,118,Dynobil oto ekspertiz ve cadde modifiye merkezi,"İnönü mahallesi Alparslan Türkeş bulvarı yıldız AP altı cadde tuning no 8, Kastamonu Merkez/Kastamonu, Turkey",41.393609,33.7819243,93.45758820671816,2.5122179312985,1.9180163818287936,3.766308245031926,29725.0,5414.0,3.64,6684.0,218.0,5122.0,0,1,0,0,1,0,0,0
119,119,TAM-SAN Dynobil Kayseri Oto Ekspertiz,"Şeker, 10. Sk. No:5, 38080 Kocasinan/Kayseri, Turkey",38.7351869,35.4380002,52.94318887902492,0.0120727833544833,0.4048850380457566,52.90398368700649,3690.0,324.0,3.29,4502.0,218.0,5122.0,0,0,0,1,0,0,1,0
120,120,KİLİS DYNOBİL OTO EKSPERTİZ,"Mehmet Rıfat Kazancıoğlu, Kilis Küçük Sanayi Sitesi, 79000 Kilis Merkez/Kilis, Turkey",36.70585560000001,37.1517557,38.24181143389164,0.1120560046624121,2.409541513700824,0.6454215358670166,8564.0,6796.0,3.92,3711.0,453.0,3850.0,1,0,0,0,0,0,1,0
121,121,DYNOBiL OTO EKSPERTiZ KIRIKKALE,"Sanayi Mahallesi, Alparslan Türkeş Bulvarı No 383/A, 71400 Merkez/Kırıkkale, Turkey",39.8427573,33.5205569,54.42221845053126,0.2284098888701211,0.9710826830619368,3.0059962283383075,11777.0,3012.0,3.0,3613.0,466.0,7446.0,0,0,0,1,0,0,1,0
122,122,DYNOBİL KIRŞEHİR OTO EKSPERTİZ TSE - HYB - TÜV Onaylı,"Kılıçözü Sanayi Sitesi 25.B Blok No:13, 40100 Merkez/Kırşehir, Turkey",39.120556,34.18819800000001,71.35083314899283,0.2396207268933484,0.2892813979640641,71.3190402019884,4811.0,386.0,3.3,4041.0,280.0,3281.0,0,0,0,1,0,1,0,0
123,123,Dynobil,"Dumlupınar, Hürriyet Cd. No:277 D:A 44 Evler, 41900 Derince/Kocaeli, Turkey",40.7566421,29.8162713,5.191499829415331,0.0643973228160617,0.7650527560614859,1.156329033670708,8616.0,10136.0,3.2,4636.0,158.0,3677.0,0,1,0,0,0,0,1,0
124,124,Dynobil Gebze Oto Ekspertiz,"MUSTAFA PAŞA MAHALLESİ, Şht. Yılmaz Argon Cd. NO:109/A, 41400 Gebze/Kocaeli, Turkey",40.8022905,29.4292948,18.606534834134823,0.506518153566131,0.6092630373936331,0.1304807609782484,19827.0,30040.0,3.38,5431.0,488.0,8868.0,0,1,0,0,0,1,0,0
125,125,Dynobil Auto Expertise,"Piyalepaşa, Atatürk Blv. No:282/A, 41650 Gölcük/Kocaeli, Turkey",40.7128851,29.8379073,5.191499829415331,1.2658943087086003,1.2124790956943707,1.421012248328998,11044.0,14342.0,3.4,3875.0,317.0,4567.0,0,1,0,0,0,0,1,0
126,126,Karabük Oto Ekspertiz Dynobil,"Hürriyet Mahallesi, Bağ-Essan Sanayi Sitesi, Ateş Cd. No: 23, 78050 Merkez/Karabük, Turkey",41.1935201,32.6076595,50.09911766152434,3.2770887492434637,0.6097104328705343,2.2662184399416208,2406.0,417.0,3.6,7447.0,112.0,3603.0,0,1,0,0,1,0,0,0
127,127,Dynobil İzmit Oto Ekspertiz Merkezi,"Sanayi Mh D130 Karayolu Yanyol Cad No:129/C, 41000 Kocaeli, Turkey",40.7456247,29.956005,10.618528087320463,3.5561473824196744e-05,1.2940076316002744,9.604015590480516,3993.0,729.0,3.11,3466.0,219.0,3417.0,0,0,0,1,0,0,1,0
128,128,DYNOBİL OTO EKSPERTİZ AKŞEHİR,"Seyran, 33180 sokak no 1, 42550 Akşehir/Konya, Turkey",38.35378040000001,31.4321605,23.861399990398827,0.0658694329796962,1.3726402474290704,0.0741731981241434,8432.0,196.0,3.93,4221.0,218.0,5122.0,0,0,0,1,0,0,1,0
129,129,DYNOBİL Konya Oto Ekspertiz,"Fevziçakmak Mah. 10436 Sk. H Blok 3C, 42050 Karatay/Konya, Turkey",37.9077705,32.5178815,107.2948307542184,0.1450811797945965,0.4089354196603982,74.31709742807864,4587.0,2903.0,2.99,4598.0,218.0,5122.0,0,0,0,1,0,1,0,0
130,130,Dynobil Kütahya Oto Ekspertiz,"Fuatpaşa, Ahievran Cd. No:5/G, 43050 Merkez/Kütahya, Turkey",39.4329804,29.9719168,39.75241344794384,0.0043428565366077,0.4370329242351051,0.1947352783504924,3625.0,2788.0,3.98,2610.0,200.0,2623.0,0,0,0,1,0,1,0,0
131,131,DYNOBİL Tavşanlı Oto Ekspertiz,"Çukurköy Yeni Sanayi Cad. Küme evleri. No:10/61, 43300 Tavşanlı/Kütahya, Turkey",39.542825,29.5321134,39.75241344794384,0.1206299492627391,3.5092384031783928,39.52506385476276,3915.0,5019.0,3.26,3977.0,166.0,3695.0,0,1,0,0,0,1,0,0
132,132,Dynobil Oto Ekspertiz - Malatya,"Çavuşoğlu, Çırak Caddesi No:2, 44090 Yeşilyurt/Malatya, Turkey",38.3522849,38.2999882,68.28988743879133,0.1306199682532599,0.3369535505721711,0.8885049169792301,2725.0,2270.0,5.51,2696.0,54.0,1370.0,0,0,0,1,0,0,1,0
133,133,DYNOBİL Alaşehir Oto Ekspertiz,"Barış Akarca Mahallesi Ticaret Borsası, 6. Sk. No: 3, 45600 Alaşehir/Manisa, Turkey",38.3580837,28.5433991,38.38016083475966,0.0912567420619729,2.379677828873322,0.0699484960699841,3002.0,2291.0,4.15,3142.0,186.0,3231.0,0,0,0,1,0,0,1,0
134,134,Dynobil Oto Ekspertiz Salihli 4x4 Quattro Sistem,"Yeni Sanayi Sitesi, 547. Sk. No: 268, 45300 Salihli/Manisa, Turkey",38.49150540000001,28.1379234,38.38016083475966,0.3338596841101792,0.4797178781416132,0.9492668021822196,1812.0,116.0,3.04,4247.0,103.0,1552.0,0,0,0,1,0,0,1,0
135,135,DYNOBİL Saruhanlı Oto Ekspertiz,"İstasyon, Kurtuluş Sk. No:2/1, 45800 Saruhanlı/Manisa, Turkey",38.7297874,27.5795542,46.59074685169679,18.17846134500777,0.7428120361878774,31.050567689977782,5321.0,2498.0,3.2,2809.0,91.0,2340.0,0,0,0,1,0,0,1,0
136,136,Dynobil Soma Oto Ekspertiz,"Cumhuriyet, Yavuz Selim Cd. No:70, 45500 Soma/Manisa, Turkey",39.1879849,27.6242009,51.01364596687328,2.2548451844394397,1.2480739845317093,4.986962441230275,11484.0,4333.0,5.43,1857.0,218.0,5122.0,0,0,0,1,0,0,1,0
137,137,Dynobil Oto Ekspertiz,"Atatürk, 845. Sk. No:35-A, 47400 Kızıltepe/Mardin, Turkey",37.1837135,40.6061485,90.92364047692055,0.8343440688057989,1.481480637388168,0.1821915358535777,736.0,130.0,3.03,1518.0,0.0,507.0,0,0,0,1,0,0,0,1
138,138,Anamur Oto Ekspertiz Dynobil,"Anamur Sanayi Sitesi Uysal Otogaz Özel Blog No:, D:1, 33640 Anamur/Mersin, Turkey",36.0883472,32.8560969,94.16373519859104,0.2899122381096907,2.2754428146866763,1.2043972841029007,13860.0,3422.0,3.19,4441.0,656.0,8809.0,0,1,0,0,0,0,1,0
139,139,Erdemli Dynobil Oto Ekspertiz,"Alata mah. Osman Bölükbaşı caddesi, Sincan Sk. no 21/a, 33730 Erdemli/Mersin, Turkey",36.6164547,34.3192907,26.16236024717462,0.2192161652416433,1.3459219517529724,0.4738726587826824,14985.0,17424.0,2.99,4946.0,369.0,7036.0,0,1,0,0,0,0,1,0
140,140,DYNOBİL Mezitli Oto Ekspertiz,"Atatürk, Stüdyo Evleri, Vali Şenol Engin Cd. No:26, 33340 Mezitli/Mersin, Turkey",36.7664393,34.5451523,6.360461747055396,0.5297821816218697,1.647654853138519,0.6344500931833137,14396.0,5758.0,2.86,6075.0,377.0,8816.0,1,0,0,0,1,0,0,0
141,141,Tarsus Dynobil Oto Ekspertiz,"Öğretmenler, 2954. Sk. no:10/A, 33460 Tarsus/Mersin, Turkey",36.9053218,34.8741369,26.81313733414025,0.5835830061424063,1.6700697403868925,2.023514831358707,10581.0,5454.0,3.36,4845.0,328.0,5410.0,0,1,0,0,0,0,1,0
142,142,Dynobil,"Cumhuriyet, 1601. Sk., 33110 Yenişehir/Mersin, Turkey",36.7889292,34.6106876,6.360461747055396,0.0435029407056015,0.1943094633245851,6.478111615106201,16970.0,25712.0,3.04,5215.0,295.0,7737.0,0,1,0,0,0,0,1,0
143,143,Dynobil Bodrum Oto Ekspertiz,"Dynobil Bodrum Oto Expertiz Konacık Sanayi Sitesi No:7 D:E-Blok, 48600 Bodrum/Muğla, Turkey",37.0561717,27.3854137,36.48865869029671,0.1026975614597493,0.2562386385796305,0.2023579270306655,4979.0,514.0,2.59,6863.0,443.0,4437.0,1,0,0,0,1,0,0,0
144,144,ORTACA OTO EKSPERTİZ,"Karaburun, Atatürk Blv. 5. Sokak D:No:2, 48600 Ortaca/Muğla, Turkey",36.8468388,28.7476221,42.29948486784489,1.912168803854328,1.8888007037582224,1.8289892530572065,3216.0,1576.0,3.25,2962.0,75.0,2471.0,0,0,0,1,0,0,1,0
145,145,Otonubil Oto Ekspertiz Fethiye,"Taşyaka Mah, 253. Sk. No:5, 48300 Fethiye/Muğla, Turkey",36.6250008,29.1327357,42.29948486784489,0.046449810243675,0.0983153190086524,38.00766973559924,12757.0,5798.0,2.79,6931.0,338.0,8368.0,0,1,0,0,1,0,0,0
146,146,Marmaris Oto Ekspertiz,"çamdibi mah 231 sokak no 4 iç kapı no:z1, 48700 Marmaris/Muğla, Turkey",36.8627289,28.2717669,38.60354034437881,38.32039067803135,0.5873762306627128,0.1477811424211256,3727.0,1029.0,2.91,6402.0,105.0,2115.0,0,1,0,0,1,0,0,0
147,147,MUĞLA OTO EKSPERTIZ DYNOBIL,"Orhaniye, 143. Sk. no.39, 48000 Menteşe/Muğla, Turkey",37.201343,28.371072,38.60354034437881,5.17688403098451e-05,1.5027853276614618,1.6823523496786872,14217.0,1024.0,2.89,6313.0,256.0,8903.0,1,0,0,0,1,0,0,0
148,148,Dynobil Milas Oto Ekspertiz,"Ahmet Çavuş Hayıtlı, 23 Nisan Blv. No:146/A, 48200 Milas/Muğla, Turkey",37.3052213,27.7845657,44.947677550691786,1.7254622358129528,0.4473117167835844,0.0620902397754547,8708.0,1844.0,3.06,6042.0,119.0,4241.0,1,0,0,0,1,0,0,0
149,149,NEVŞEHİR OTO EKSPERTİZ DYNOBİL,"Sümer Mahallesi Lale Sanayi Sitesi 1.Ek Blok No/16, 50240 Merkez/Nevşehir, Turkey",38.6125078,34.6917636,66.35191699497297,0.1319469255827739,0.406984944889828,0.6440543569041078,992.0,297.0,2.94,3242.0,42.0,656.0,0,0,0,1,0,0,1,0
150,150,Dynobil Niğde Oto Ekspertiz,"İlhanlı, Ata Sanayi Sitesi, Zengin Sk. no: 42, 51000 Merkez/Niğde, Turkey",37.9803809,34.7145252,70.1956556702964,0.2970124964691117,0.3697202307672168,0.3093140745376023,4956.0,791.0,3.36,3382.0,218.0,5122.0,0,0,0,1,0,0,1,0
151,151,Michelin,"Göksu, Alparslan Türkeş Blv. 794/A, 33960 Silifke/Mersin, Turkey",36.3799345,33.9377631,43.096248423002415,0.0806226639436216,1.031456004169652,0.4998574334603503,21675.0,1171.0,3.74,3075.0,218.0,5122.0,0,0,0,1,0,1,0,0
152,152,DYNOBİL Ordu Oto Ekspertiz,"Şirinevler, Zübeyde Hanım Cd. No:373/A, 52000 Altınordu/Ordu, Turkey",40.96081,37.8984823,26.875026351030343,0.0891464555021189,1.867308926409558,2.166115655734246,17285.0,13828.0,3.01,5526.0,398.0,9513.0,0,1,0,0,0,0,1,0
153,153,ALİŞAN Dynobil Kadirli Oto Ekspertiz,"Cemalpaşa, 1593. Sk. no:8, 80750 Kadirli/Osmaniye, Turkey",37.3668235,36.0775769,0.4412520927701666,0.1869615777217665,1.2355595993468644,0.0485963985120278,14962.0,5732.0,3.36,3080.0,396.0,7222.0,0,1,0,0,0,1,0,0
154,154,Kadirli Uzman Oto Ekspertiz Dynobil,"Şehit Halis Şişman, Ş, Kamil Kara Blv. NO:198A, 80750 Kadirli/Osmaniye, Turkey",37.3643512,36.0814779,0.4412520927701666,0.4219639804989479,0.99462868053326,0.3050173656127673,4852.0,1859.0,3.27,2417.0,15.0,2372.0,0,1,0,0,0,0,1,0
155,155,DYNOBİL Osmaniye Oto Ekspertiz,"Şirinevler, Toprakkale Cd., 80010 Osmaniye Merkez/Osmaniye, Turkey",37.0634829,36.2214044,25.98905291682794,0.0207757152095593,1.221376235726461,0.1076502909514301,1735.0,2115.0,3.48,3892.0,49.0,986.0,0,1,0,0,0,0,1,0
156,156,Ardeşen oto ekspertiz,"Fırtına, Sanayi sitesi girişi No:3, 53400 Ardeşen/Rize, Turkey",41.18709459999999,40.966338,46.449921680478205,33.24785003248884,1.2675620767751068,1.725020742167862,5388.0,1367.0,3.39,3582.0,218.0,5122.0,0,1,0,0,0,0,1,0
157,157,DYNOBİL Sakarya Oto Ekspertiz,"Erenler Mah, 1091. Sk No:1/Z02, 54200 Erenler/Sakarya, Turkey",40.75048719999999,30.4145444,38.72954684074109,0.0416015745984842,0.0241425421962242,0.2835629911131349,14331.0,4907.0,3.59,4658.0,579.0,7490.0,0,1,0,0,0,0,1,0
158,158,ÇARŞAMBA DYNOBİL OTO EKSPERTİZ,"Yeşilırmak, Sungurlu, Yeni Samsun Cd. no 195, 55500 Çarşamba/Samsun, Turkey",41.2048895,36.70682499999999,70.79495662425185,0.1808695730022788,0.7507094623722527,0.1202848944922508,5936.0,3174.0,3.26,4238.0,2.0,3613.0,0,0,0,1,0,0,1,0
159,159,Dynobil Oto Ekspertiz Çözümleri Şanlıurfa Yetkili Bayii,"Kadıkendi, Evren 1. Cd. 4.Sokak D:no 19, 63200 Eyyübiye/Şanlıurfa, Turkey",37.1431853,38.7370943,80.27112962897989,0.1409554763631914,1.1546685025473,80.15050902949093,365.0,11.0,5.07,1673.0,20.0,984.0,0,0,1,0,0,0,0,1
160,160,BARAN OTOMOTIV,"Ayvanat, Ayvanat 12. Sk., 63600 Siverek/Şanlıurfa, Turkey",37.7421288,39.3154352,69.71396794054539,0.4438255039498932,0.7756514090566015,68.92297417043669,18127.0,10789.0,4.49,2216.0,712.0,7735.0,0,0,1,0,0,0,1,0
161,161,Dynobil cizre oto test merkezi,"Sur, ferfooğlu petrol içi, Nusaybin Cd., 73200 Cizre/Şırnak, Turkey",37.3201177,42.1864928,28.00648336889532,0.757943906380729,0.5365767925803169,0.2324739323886356,11136.0,2977.0,5.31,2806.0,99.0,4356.0,0,0,1,0,0,1,0,0
162,162,İdil Dynobil Oto Ekspertiz,"Turgut özal mahllesi midyat caddesi üzeri no 53, 73300 İdil/Şırnak, Turkey",37.3278532,41.8706571,28.00648336889532,25.58507697171196,2.4128362708049944,2.4432368317841235,7791.0,1125.0,5.45,1564.0,121.0,2110.0,0,0,1,0,0,0,0,1
163,163,DYNOBİL Sivas Oto Ekspertiz Yetkili Bayi,"Gültepe, 53-19. Sk. No:4, 58080 Merkez/Sivas, Turkey",39.7266533,37.0040516,78.19279735212311,0.3009817742037216,2.7363456188130866,0.1264680957156524,2501.0,285.0,3.84,4464.0,182.0,3708.0,0,0,0,1,0,0,1,0
164,164,Kurumsal Çerkezköy Dynobil Oto Ekspertiz,"Çerkezköy Küçük Sanayi Sitesi 2. Blok No:16 Fevzipaşa Mah, Hayri Batur Cd. 2. Blok D:No:16, 59000 Çerkezköy/Tekirdağ, Turkey",41.2800027,27.9947406,19.34594176652528,0.0867623751637316,0.5217916311153497,61.41359610144439,19196.0,16692.0,3.52,5655.0,218.0,5122.0,0,1,0,0,0,1,0,0
165,165,DYNOBİL Çorlu Oto Ekspertiz 4x4,"Zafer, Bakım Onarım, Yeni Sanayi Sitesi, 59850 Çorlu/Tekirdağ, Turkey",41.1459645,27.837019,19.91356657428666,0.1142093830382903,0.4036701415706686,74.53571432881365,8044.0,1561.0,2.97,5412.0,211.0,5408.0,0,1,0,0,0,0,1,0
166,166,Dynobil Tekirdağ Saray Oto Ekspertiz,"Pazarcık, İstanbul Cd. no 155, 59600 Saray/Tekirdağ, Turkey",41.4472921,27.9302969,19.34594176652528,13.116136636427072,1.195342530596217,71.30940293259717,3819.0,2342.0,3.39,3155.0,218.0,5122.0,0,1,0,0,0,1,0,0
167,167,Dynobil Tokat Oto Ekspertiz,"Yeniyurt, Ayyıldız Cd., 60030 Tokat Merkez/Tokat, Turkey",40.33456040000001,36.5416111,38.60648299329791,0.0945465380368875,1.483992565167423,0.2108564515984961,2395.0,589.0,3.46,3680.0,218.0,5122.0,0,1,0,0,0,0,1,0
168,168,Erdal Oto Servis,"Niksar Sanayi Sitesi 37. Blok D:4, Niksar Merkez, 60600 Niksar/Tokat, Turkey",40.5877113,36.9172325,42.4876588157014,3.0689504327230623,3.092461985323032,2.038758140135816,3227.0,1763.0,3.1,3174.0,218.0,5122.0,0,0,0,1,0,1,0,0
169,169,TURHAL DYNOBİL OTO EKPERTİZ,"Meydan, Gaziosmanpaşa Cd. No:53, 60300, 60300 Turhal/Tokat, Turkey",40.382217,36.0914164,32.49878675805724,0.2274052268450726,0.698203741078011,0.7031283872034096,1329.0,6994.0,3.06,2609.0,36.0,994.0,0,0,0,1,0,0,1,0
170,170,Dynobil oto ekspertiz,"Sulaklı, Of Sanayi Sitesi No:48, 61830 Of/Trabzon, Turkey",40.9404251,40.2733298,44.25171387068048,1.4125611781244187,0.9009294628070754,0.5791301578608181,7288.0,9110.0,3.18,3888.0,185.0,6312.0,0,0,0,1,0,1,0,0
171,171,Dynobil Oto Ekspertiz,"Sanayi, 310. Sk. No:18, 61100 Trabzon Merkez/Trabzon, Turkey",40.9990925,39.7533387,44.25171387068048,0.0731927319798621,2.0084738240910447,43.6338572182334,1776.0,1585.0,3.52,5146.0,117.0,3861.0,0,1,0,0,0,0,1,0
172,172,Uşak Dynobil Oto Ekspertiz,"1 EYLÜL SANAYİ SİTESİ, 2. Dokumacı Sk. NO:15, 64200 Merkez/Uşak, Turkey",38.6723168,29.4388145,76.15436012209527,0.7135588543957967,2.144036454149804,2.1328159919987786,12418.0,2999.0,2.96,2637.0,218.0,5122.0,0,0,0,1,0,1,0,0
173,173,DYNOBİL Yalova Oto Ekspertiz,"Sanayi, Bursa Yolu 4.KM, 77202 Soğucak/MERKEZ/Yalova, 77200 Merkez/Yalova, Turkey",40.6203971,29.2711159,13.411537265051434,0.3417516733185903,3.5523491665550075,1.510014244341544,14157.0,8580.0,3.23,6133.0,12.0,6098.0,0,1,0,0,1,0,0,0
174,174,Dynobil Boğazlıyan Oto Ekspertiz,"Çarşı, Şht. Uğur Karasu Cd., 66402 Boğazlıyan/Yozgat, Turkey",39.1875433,35.244556,52.94318887902492,21.16709262880629,0.3906593642211797,0.3894809699381633,1893.0,2524.0,2.84,3924.0,218.0,5122.0,0,0,0,1,0,0,1,0
175,175,DYNOBİL Yozgat Oto Ekspertiz,"Yozgat Ankara Yolu 4. Km Sarıhacılı Mah. Mevki, 66100 Merkez/Yozgat, Turkey",39.807211,34.7685853,80.05868260563837,2.1048998590095307,3.718214881188592,80.01826671355796,146.0,6.3,3.205,1870.0,218.0,5122.0,0,0,0,1,0,0,0,1
176,176,Çaycuma Oto Ekspertiz,"İstasyon Mahallesi İskele Caddesi Fetih Sokak No: 18/A Çaycuma/ Zonguldak, 67900 Çaycuma/Zonguldak, Turkey",41.4240955,32.0934541,25.82121665128516,1.4955658633522952,1.4257094252020468,0.2101594441374728,3431.0,907.0,3.06,4463.0,48.0,3657.0,0,0,0,1,0,0,1,0
177,177,DYNOBİL KDZ.EREĞLİ OTO EKSPERTİZ (TSE BELGELİ),"Kavaklık Mah.Devrek Yolu Cad.No:72/d (carrefour yanı) Diş Hastanesi Girişi, 67300 kdz/Zonguldak, Turkey",41.2683211,31.4567858,34.109224475386206,2.520422800438366,1.9640676649008963,54.12738283450494,6234.0,7992.0,3.75,2998.0,172.0,3028.0,0,1,0,0,0,0,1,0
178,178,Zonguldak Oto Ekspertiz (Dynobil) TSE-HYB Belgeli,"Terakki Mah.Mehmet Akif Ersoy cad, Dr. Oğuz Gürcan Sk. no:87/b, 67100 Zonguldak, Turkey",41.4491174,31.7862992,25.82121665128516,0.4298324751052373,0.4963346774271887,25.628434476046,10490.0,6170.0,3.0,5389.0,139.0,7129.0,0,1,0,0,0,0,1,0
